[{"OBJECT_NAME":"ONEWEB-0639","OBJECT_ID":"2023-029H","EPOCH":"2026-01-08T06:51:44.804736","MEAN_MOTION":13.19728294,"ECCENTRICITY":0.00014149,"INCLINATION":87.9221,"RA_OF_ASC_NODE":336.7968,"ARG_OF_PERICENTER":44.8906,"MEAN_ANOMALY":315.2341,"EPHEMERIS_TYPE":0,"CLASSIFICATION_TYPE":"U","NORAD_CAT_ID":55803,"ELEMENT_SET_NO":999,"REV_AT_EPOCH":13781,"BSTAR":-0.0012380379,"MEAN_MOTION_DOT":-4.83e-6,"MEAN_MOTION_DDOT":0},{"OBJECT_NAME":"ONEWEB-0640","OBJECT_ID":"2023-029J","EPOCH":"2026-01-08T06:01:06.671424","MEAN_MOTION":13.14501556,"ECCENTRICITY":0.00022823,"INCLINATION":87.9014,"RA_OF_ASC_NODE":321.624,"ARG_OF_PERICENTER":63.2914,"MEAN_ANOMALY":296.845,"EPHEMERIS_TYPE":0,"CLASSIFICATION_TYPE":"U","NORAD_CAT_ID":55804,"ELEMENT_SET_NO":999,"REV_AT_EPOCH":13840,"BSTAR":0.00031105369,"MEAN_MOTION_DOT":1.28e-6,"MEAN_MOTION_DDOT":0},{"OBJECT_NAME":"ONEWEB-0641","OBJECT_ID":"2023-029K","EPOCH":"2026-01-08T06:44:55.205664","MEAN_MOTION":13.19724446,"ECCENTRICITY":0.00016318,"INCLINATION":87.9229,"RA_OF_ASC_NODE":336.7805,"ARG_OF_PERICENTER":77.5653,"MEAN_ANOMALY":282.5663,"EPHEMERIS_TYPE":0,"CLASSIFICATION_TYPE":"U","NORAD_CAT_ID":55805,"ELEMENT_SET_NO":999,"REV_AT_EPOCH":13782,"BSTAR":-7.0425544e-5,"MEAN_MOTION_DOT":-1.5e-7,"MEAN_MOTION_DDOT":0},{"OBJECT_NAME":"ONEWEB-0642","OBJECT_ID":"2023-029L","EPOCH":"2026-01-08T06:38:05.690400","MEAN_MOTION":13.19724647,"ECCENTRICITY":0.00011448,"INCLINATION":87.9215,"RA_OF_ASC_NODE":336.8017,"ARG_OF_PERICENTER":56.2513,"MEAN_ANOMALY":303.8729,"EPHEMERIS_TYPE":0,"CLASSIFICATION_TYPE":"U","NORAD_CAT_ID":55806,"ELEMENT_SET_NO":999,"REV_AT_EPOCH":13781,"BSTAR":-6.3595012e-5,"MEAN_MOTION_DOT":-1.3e-7,"MEAN_MOTION_DDOT":0},{"OBJECT_NAME":"ONEWEB-0643","OBJECT_ID":"2023-029M","EPOCH":"2026-01-08T07:07:19.266528","MEAN_MOTION":13.14503513,"ECCENTRICITY":0.0001089,"INCLINATION":87.9014,"RA_OF_ASC_NODE":321.6016,"ARG_OF_PERICENTER":68.3637,"MEAN_ANOMALY":291.7608,"EPHEMERIS_TYPE":0,"CLASSIFICATION_TYPE":"U","NORAD_CAT_ID":55807,"ELEMENT_SET_NO":999,"REV_AT_EPOCH":13838,"BSTAR":0.00027676794,"MEAN_MOTION_DOT":1.15e-6,"MEAN_MOTION_DDOT":0},{"OBJECT_NAME":"ONEWEB-0644","OBJECT_ID":"2023-029N","EPOCH":"2026-01-08T04:42:04.694688","MEAN_MOTION":13.19723871,"ECCENTRICITY":0.00014311,"INCLINATION":87.9211,"RA_OF_ASC_NODE":336.8269,"ARG_OF_PERICENTER":74.0906,"MEAN_ANOMALY":286.0384,"EPHEMERIS_TYPE":0,"CLASSIFICATION_TYPE":"U","NORAD_CAT_ID":55808,"ELEMENT_SET_NO":999,"REV_AT_EPOCH":13780,"BSTAR":2.400516e-6,"MEAN_MOTION_DOT":1.4e-7,"MEAN_MOTION_DDOT":0},{"OBJECT_NAME":"ONEWEB-0645","OBJECT_ID":"2023-029P","EPOCH":"2026-01-08T07:03:07.619616","MEAN_MOTION":13.19725614,"ECCENTRICITY":0.00017346,"INCLINATION":87.9211,"RA_OF_ASC_NODE":336.8003,"ARG_OF_PERICENTER":63.2644,"MEAN_ANOMALY":296.8666,"EPHEMERIS_TYPE":0,"CLASSIFICATION_TYPE":"U","NORAD_CAT_ID":55809,"ELEMENT_SET_NO":999,"REV_AT_EPOCH":13781,"BSTAR":-0.00014857753,"MEAN_MOTION_DOT":-4.7e-7,"MEAN_MOTION_DDOT":0},{"OBJECT_NAME":"ONEWEB-0646","OBJECT_ID":"2023-029Q","EPOCH":"2026-01-08T07:28:08.734080","MEAN_MOTION":13.19726589,"ECCENTRICITY":0.00015161,"INCLINATION":87.9223,"RA_OF_ASC_NODE":336.791,"ARG_OF_PERICENTER":76.4358,"MEAN_ANOMALY":283.6943,"EPHEMERIS_TYPE":0,"CLASSIFICATION_TYPE":"U","NORAD_CAT_ID":55810,"ELEMENT_SET_NO":999,"REV_AT_EPOCH":13780,"BSTAR":2.6185347e-5,"MEAN_MOTION_DOT":2.3e-7,"MEAN_MOTION_DDOT":0},{"OBJECT_NAME":"ONEWEB-0648","OBJECT_ID":"2023-029R","EPOCH":"2026-01-08T06:21:39.096576","MEAN_MOTION":13.14503309,"ECCENTRICITY":0.00016864,"INCLINATION":87.9021,"RA_OF_ASC_NODE":321.57,"ARG_OF_PERICENTER":45.7956,"MEAN_ANOMALY":314.3312,"EPHEMERIS_TYPE":0,"CLASSIFICATION_TYPE":"U","NORAD_CAT_ID":55811,"ELEMENT_SET_NO":999,"REV_AT_EPOCH":13838,"BSTAR":-0.00029103256,"MEAN_MOTION_DOT":-9.5e-7,"MEAN_MOTION_DDOT":0},{"OBJECT_NAME":"ONEWEB-0649","OBJECT_ID":"2023-029S","EPOCH":"2026-01-08T04:26:10.459392","MEAN_MOTION":13.19724757,"ECCENTRICITY":0.00016153,"INCLINATION":87.9223,"RA_OF_ASC_NODE":336.813,"ARG_OF_PERICENTER":67.5524,"MEAN_ANOMALY":292.5779,"EPHEMERIS_TYPE":0,"CLASSIFICATION_TYPE":"U","NORAD_CAT_ID":55812,"ELEMENT_SET_NO":999,"REV_AT_EPOCH":13782,"BSTAR":7.1069147e-5,"MEAN_MOTION_DOT":4.1e-7,"MEAN_MOTION_DDOT":0},{"OBJECT_NAME":"ONEWEB-0650","OBJECT_ID":"2023-029T","EPOCH":"2026-01-08T04:19:21.627552","MEAN_MOTION":13.19724991,"ECCENTRICITY":0.00014338,"INCLINATION":87.9219,"RA_OF_ASC_NODE":336.8186,"ARG_OF_PERICENTER":68.0751,"MEAN_ANOMALY":292.0534,"EPHEMERIS_TYPE":0,"CLASSIFICATION_TYPE":"U","NORAD_CAT_ID":55813,"ELEMENT_SET_NO":999,"REV_AT_EPOCH":13779,"BSTAR":-0.00023123543,"MEAN_MOTION_DOT":-8.0e-7,"MEAN_MOTION_DDOT":0},{"OBJECT_NAME":"ONEWEB-0652","OBJECT_ID":"2023-029U","EPOCH":"2026-01-08T02:15:02.424384","MEAN_MOTION":13.14501988,"ECCENTRICITY":0.00018465,"INCLINATION":87.9014,"RA_OF_ASC_NODE":321.6234,"ARG_OF_PERICENTER":84.0747,"MEAN_ANOMALY":276.0593,"EPHEMERIS_TYPE":0,"CLASSIFICATION_TYPE":"U","NORAD_CAT_ID":55814,"ELEMENT_SET_NO":999,"REV_AT_EPOCH":13833,"BSTAR":0.00040300076,"MEAN_MOTION_DOT":1.62e-6,"MEAN_MOTION_DDOT":0},{"OBJECT_NAME":"ONEWEB-0653","OBJECT_ID":"2023-029V","EPOCH":"2026-01-08T07:21:01.986336","MEAN_MOTION":13.14502451,"ECCENTRICITY":0.00019259,"INCLINATION":87.9013,"RA_OF_ASC_NODE":321.5705,"ARG_OF_PERICENTER":78.8871,"MEAN_ANOMALY":281.2475,"EPHEMERIS_TYPE":0,"CLASSIFICATION_TYPE":"U","NORAD_CAT_ID":55815,"ELEMENT_SET_NO":999,"REV_AT_EPOCH":13839,"BSTAR":0.00062760455,"MEAN_MOTION_DOT":2.45e-6,"MEAN_MOTION_DDOT":0},{"OBJECT_NAME":"ONEWEB-0654","OBJECT_ID":"2023-029W","EPOCH":"2026-01-08T07:14:10.802688","MEAN_MOTION":13.14502585,"ECCENTRICITY":0.00020422,"INCLINATION":87.9016,"RA_OF_ASC_NODE":321.5713,"ARG_OF_PERICENTER":86.7577,"MEAN_ANOMALY":273.3786,"EPHEMERIS_TYPE":0,"CLASSIFICATION_TYPE":"U","NORAD_CAT_ID":55816,"ELEMENT_SET_NO":999,"REV_AT_EPOCH":13841,"BSTAR":0.00047149615,"MEAN_MOTION_DOT":1.88e-6,"MEAN_MOTION_DDOT":0},{"OBJECT_NAME":"ONEWEB-0656","OBJECT_ID":"2023-029X","EPOCH":"2026-01-08T06:45:22.553856","MEAN_MOTION":13.20771216,"ECCENTRICITY":0.00020611,"INCLINATION":87.9231,"RA_OF_ASC_NODE":306.3245,"ARG_OF_PERICENTER":86.1473,"MEAN_ANOMALY":273.9896,"EPHEMERIS_TYPE":0,"CLASSIFICATION_TYPE":"U","NORAD_CAT_ID":55817,"ELEMENT_SET_NO":999,"REV_AT_EPOCH":14004,"BSTAR":4.639787e-5,"MEAN_MOTION_DOT":3.2e-7,"MEAN_MOTION_DDOT":0},{"OBJECT_NAME":"ONEWEB-0657","OBJECT_ID":"2023-029Y","EPOCH":"2026-01-08T04:12:31.210272","MEAN_MOTION":13.19723589,"ECCENTRICITY":0.0001746,"INCLINATION":87.9212,"RA_OF_ASC_NODE":336.8203,"ARG_OF_PERICENTER":107.6324,"MEAN_ANOMALY":252.5,"EPHEMERIS_TYPE":0,"CLASSIFICATION_TYPE":"U","NORAD_CAT_ID":55818,"ELEMENT_SET_NO":999,"REV_AT_EPOCH":13780,"BSTAR":-1.7319268e-5,"MEAN_MOTION_DOT":6.0e-8,"MEAN_MOTION_DDOT":0},{"OBJECT_NAME":"ONEWEB-0658","OBJECT_ID":"2023-029Z","EPOCH":"2026-01-07T22:38:10.172256","MEAN_MOTION":13.19724293,"ECCENTRICITY":0.0001425,"INCLINATION":87.9234,"RA_OF_ASC_NODE":336.8247,"ARG_OF_PERICENTER":72.9423,"MEAN_ANOMALY":287.1866,"EPHEMERIS_TYPE":0,"CLASSIFICATION_TYPE":"U","NORAD_CAT_ID":55819,"ELEMENT_SET_NO":999,"REV_AT_EPOCH":13778,"BSTAR":5.2785e-5,"MEAN_MOTION_DOT":3.4e-7,"MEAN_MOTION_DDOT":0}]
