ONEWEB-0639             
1 55803U 23029H   26008.28593524 -.00000483  00000+0 -12380-2 0  9993
2 55803  87.9221 336.7968 0001414  44.8906 315.2341 13.19728294137810
ONEWEB-0640             
1 55804U 23029J   26008.25077166  .00000128  00000+0  31105-3 0  9991
2 55804  87.9014 321.6240 0002282  63.2914 296.8450 13.14501556138401
ONEWEB-0641             
1 55805U 23029K   26008.28119451 -.00000015  00000+0 -70426-4 0  9996
2 55805  87.9229 336.7805 0001631  77.5653 282.5663 13.19724446137822
ONEWEB-0642             
1 55806U 23029L   26008.27645475 -.00000013  00000+0 -63595-4 0  9993
2 55806  87.9215 336.8017 0001144  56.2513 303.8729 13.19724647137814
ONEWEB-0643             
1 55807U 23029M   26008.29675077  .00000115  00000+0  27677-3 0  9998
2 55807  87.9014 321.6016 0001089  68.3637 291.7608 13.14503513138388
ONEWEB-0644             
1 55808U 23029N   26008.19588767  .00000014  00000+0  24005-5 0  9999
2 55808  87.9211 336.8269 0001431  74.0906 286.0384 13.19723871137800
ONEWEB-0645             
1 55809U 23029P   26008.29383819 -.00000047  00000+0 -14858-3 0  9993
2 55809  87.9211 336.8003 0001734  63.2644 296.8666 13.19725614137812
ONEWEB-0646             
1 55810U 23029Q   26008.31121220  .00000023  00000+0  26185-4 0  9993
2 55810  87.9223 336.7910 0001516  76.4358 283.6943 13.19726589137802
ONEWEB-0648             
1 55811U 23029R   26008.26503584 -.00000095  00000+0 -29103-3 0  9998
2 55811  87.9021 321.5700 0001686  45.7956 314.3312 13.14503309138383
ONEWEB-0649             
1 55812U 23029S   26008.18484328  .00000041  00000+0  71069-4 0  9992
2 55812  87.9223 336.8130 0001615  67.5524 292.5779 13.19724757137828
ONEWEB-0650             
1 55813U 23029T   26008.18011143 -.00000080  00000+0 -23124-3 0  9997
2 55813  87.9219 336.8186 0001433  68.0751 292.0534 13.19724991137791
ONEWEB-0652             
1 55814U 23029U   26008.09377806  .00000162  00000+0  40300-3 0  9993
2 55814  87.9014 321.6234 0001846  84.0747 276.0593 13.14501988138334
ONEWEB-0653             
1 55815U 23029V   26008.30627299  .00000245  00000+0  62760-3 0  9998
2 55815  87.9013 321.5705 0001925  78.8871 281.2475 13.14502451138392
ONEWEB-0654             
1 55816U 23029W   26008.30151392  .00000188  00000+0  47150-3 0  9997
2 55816  87.9016 321.5713 0002042  86.7577 273.3786 13.14502585138415
ONEWEB-0656             
1 55817U 23029X   26008.28151104  .00000032  00000+0  46398-4 0  9998
2 55817  87.9231 306.3245 0002061  86.1473 273.9896 13.20771216140042
ONEWEB-0657             
1 55818U 23029Y   26008.17536123  .00000006  00000+0 -17319-4 0  9998
2 55818  87.9212 336.8203 0001746 107.6324 252.5000 13.19723589137805
ONEWEB-0658             
1 55819U 23029Z   26007.94317329  .00000034  00000+0  52785-4 0  9994
2 55819  87.9234 336.8247 0001425  72.9423 287.1866 13.19724293137780
